NORAD_CAT_ID,OBJECT_NAME,OBJECT_TYPE,EPOCH,MEAN_MOTION,ECCENTRICITY,INCLINATION,RA_OF_ASC_NODE,ARG_OF_PERICENTER,MEAN_ANOMALY,BSTAR,MEAN_MOTION_DOT,MEAN_MOTION_DDOT,TLE_LINE0,TLE_LINE1,TLE_LINE2,SEMIMAJOR_AXIS,PERIOD,APOGEE,PERIGEE,DECAYED
52103.0,STARLINK-3705,PAYLOAD,2023-09-26 20:47:47,15.08837433,0.0001455,53.2153,136.1248,89.7708,270.3451,2.144e-05,5.3e-07,0.0,0 STARLINK-3705,1 52103U 22029R   23269.86651856  .00000053  00000-0  21440-4 0  9996,2 52103  53.2153 136.1248 0001455  89.7708 270.3451 15.08837433 85693,6917.888,95.438,540.76,538.747,0.0
52103.0,STARLINK-3705,PAYLOAD,2023-09-27 01:33:56,15.08831378,0.0001568,53.2161,135.2433,81.2014,278.9155,0.00020142,2.918e-05,0.0,0 STARLINK-3705,1 52103U 22029R   23270.06524171  .00002918  00000-0  20142-3 0  9998,2 52103  53.2161 135.2433 0001568  81.2014 278.9155 15.08831378 85721,6917.907,95.438,540.856,538.687,0.0
52103.0,STARLINK-3705,PAYLOAD,2023-09-27 07:55:29,15.08826067,0.0001639,53.2163,134.0529,81.8348,278.283,0.0002503,3.696e-05,0.0,0 STARLINK-3705,1 52103U 22029R   23270.33020584  .00003696  00000-0  25030-3 0  9992,2 52103  53.2163 134.0529 0001639  81.8348 278.2830 15.08826067 85767,6917.923,95.438,540.922,538.654,0.0
52103.0,STARLINK-3705,PAYLOAD,2023-09-27 23:49:21,15.08837398,0.0001637,53.2157,131.08,87.1926,272.9253,0.00048007,7.36e-05,0.0,0 STARLINK-3705,1 52103U 22029R   23270.99260874  .00007360  00000-0  48007-3 0  9993,2 52103  53.2157 131.0800 0001637  87.1926 272.9253 15.08837398 85868,6917.888,95.438,540.886,538.621,0.0
52103.0,STARLINK-3705,PAYLOAD,2023-09-28 17:18:35,15.08843784,0.0001639,53.2153,127.8086,87.3233,272.7947,0.00037418,5.673e-05,0.0,0 STARLINK-3705,1 52103U 22029R   23271.72124847  .00005673  00000-0  37418-3 0  9993,2 52103  53.2153 127.8086 0001639  87.3233 272.7947 15.08843784 85974,6917.869,95.437,540.868,538.6,0.0
52103.0,STARLINK-3705,PAYLOAD,2023-09-28 22:04:45,15.08849795,0.0001592,53.2151,126.9166,88.2634,271.854,0.00047063,7.212e-05,0.0,0 STARLINK-3705,1 52103U 22029R   23271.91996632  .00007212  00000-0  47063-3 0  9991,2 52103  53.2151 126.9166 0001592  88.2634 271.8540 15.08849795 86006,6917.85,95.437,540.817,538.614,0.0
52103.0,STARLINK-3705,PAYLOAD,2023-09-29 01:15:31,15.0885291,0.000159,53.215,126.3219,89.064,271.0534,0.00050246,7.72e-05,0.0,0 STARLINK-3705,1 52103U 22029R   23272.05244498  .00007720  00000-0  50246-3 0  9994,2 52103  53.2150 126.3219 0001590  89.0640 271.0534 15.08852910 86022,6917.841,95.437,540.806,538.606,0.0
52103.0,STARLINK-3705,PAYLOAD,2023-09-29 18:44:45,15.08854074,0.0001514,53.2141,123.0521,91.986,268.1305,0.00034579,5.222e-05,0.0,0 STARLINK-3705,1 52103U 22029R   23272.78108096  .00005222  00000-0  34579-3 0  9993,2 52103  53.2141 123.0521 0001514  91.9860 268.1305 15.08854074 86132,6917.837,95.437,540.75,538.655,0.0
52103.0,STARLINK-3705,PAYLOAD,2023-09-29 21:55:31,15.08854354,0.0001514,53.2151,122.4552,93.9046,266.2119,0.00028832,4.305e-05,0.0,0 STARLINK-3705,1 52103U 22029R   23272.91355938  .00004305  00000-0  28832-3 0  9993,2 52103  53.2151 122.4552 0001514  93.9046 266.2119 15.08854354 86153,6917.837,95.437,540.749,538.654,0.0
52103.0,STARLINK-3705,PAYLOAD,2023-09-30 18:35:32,15.0884083,0.0001446,53.2154,118.5895,98.4184,261.6972,1.4419e-06,-2.65e-06,0.0,0 STARLINK-3705,1 52103U 22029R   23273.77468349 -.00000265  00000-0  14419-5 0  9999,2 52103  53.2154 118.5895 0001446  98.4184 261.6972 15.08840830 86283,6917.878,95.438,540.743,538.743,0.0
52103.0,STARLINK-3705,PAYLOAD,2023-10-01 07:18:37,15.0884335,0.0001569,53.2159,116.2106,89.1229,270.9943,0.00015148,2.124e-05,0.0,0 STARLINK-3705,1 52103U 22029R   23274.30460531  .00002124  00000-0  15148-3 0  9997,2 52103  53.2159 116.2106 0001569  89.1229 270.9943 15.08843350 86361,6917.87,95.437,540.821,538.65,0.0
52103.0,STARLINK-3705,PAYLOAD,2023-10-01 20:01:42,15.08854571,0.000146,53.2157,113.8316,87.1883,272.9276,0.00039889,6.069e-05,0.0,0 STARLINK-3705,1 52103U 22029R   23274.83452016  .00006069  00000-0  39889-3 0  9994,2 52103  53.2157 113.8316 0001460  87.1883 272.9276 15.08854571 86446,6917.836,95.437,540.711,538.691,0.0
52103.0,STARLINK-3705,PAYLOAD,2023-10-02 19:52:29,15.08842995,0.0001431,53.216,109.3712,86.9316,273.184,9.6886e-05,1.254e-05,0.0,0 STARLINK-3705,1 52103U 22029R   23275.82812296  .00001254  00000-0  96886-4 0  9996,2 52103  53.2160 109.3712 0001431  86.9316 273.1840 15.08842995 86599,6917.871,95.437,540.726,538.746,0.0
52103.0,STARLINK-3705,PAYLOAD,2023-10-03 11:46:21,15.08835596,0.0001513,53.2145,106.4007,80.8312,279.2851,-3.7457e-05,-8.84e-06,0.0,0 STARLINK-3705,1 52103U 22029R   23276.49052742 -.00000884  00000-0 -37457-4 0  9991,2 52103  53.2145 106.4007 0001513  80.8312 279.2851 15.08835596 86696,6917.894,95.438,540.806,538.712,0.0
52103.0,STARLINK-3705,PAYLOAD,2023-10-03 18:07:54,15.0882747,0.0001495,53.2158,105.2102,85.1444,274.9718,-0.00016457,-2.905e-05,0.0,0 STARLINK-3705,1 52103U 22029R   23276.75549381 -.00002905  00000-0 -16457-3 0  9992,2 52103  53.2158 105.2102 0001495  85.1444 274.9718 15.08827470 86737,6917.919,95.438,540.818,538.749,0.0
52103.0,STARLINK-3705,PAYLOAD,2023-10-04 11:37:08,15.08841621,0.0001345,53.2155,101.9368,97.8792,262.2353,0.0002068,3.005e-05,0.0,0 STARLINK-3705,1 52103U 22029R   23277.48412916  .00003005  00000-0  20680-3 0  9999,2 52103  53.2155 101.9368 0001345  97.8792 262.2353 15.08841621 86842,6917.875,95.437,540.671,538.81,0.0
52103.0,STARLINK-3705,PAYLOAD,2023-10-04 17:58:40,15.0885342,0.0001283,53.2151,100.7479,101.3835,258.7302,0.00047172,7.23e-05,0.0,0 STARLINK-3705,1 52103U 22029R   23277.74908538  .00007230  00000-0  47172-3 0  9997,2 52103  53.2151 100.7479 0001283 101.3835 258.7302 15.08853420 86886,6917.839,95.437,540.592,538.817,0.0
52103.0,STARLINK-3705,PAYLOAD,2023-10-04 21:09:27,15.08862988,0.0001174,53.2152,100.1533,88.9089,271.2037,0.00077323,0.00012047,0.0,0 STARLINK-3705,1 52103U 22029R   23277.88156388  .00012047  00000-0  77323-3 0  9993,2 52103  53.2152 100.1533 0001174  88.9089 271.2037 15.08862988 86909,6917.81,95.436,540.487,538.863,0.0
52103.0,STARLINK-3705,PAYLOAD,2023-10-05 11:27:55,15.08853831,0.0002219,53.2162,97.4781,82.7368,277.3876,0.00048264,7.404e-05,0.0,0 STARLINK-3705,1 52103U 22029R   23278.47772895  .00007404  00000-0  48264-3 0  9999,2 52103  53.2162  97.4781 0002219  82.7368 277.3876 15.08853831 86990,6917.838,95.437,541.238,538.168,0.0
52103.0,STARLINK-3705,PAYLOAD,2023-10-05 19:24:51,15.08845037,0.0001539,53.2168,95.9921,84.8912,275.2256,0.00038899,5.909e-05,0.0,0 STARLINK-3705,1 52103U 22029R   23278.80892962  .00005909  00000-0  38899-3 0  9995,2 52103  53.2168  95.9921 0001539  84.8912 275.2256 15.08845037 87042,6917.865,95.437,540.795,538.665,0.0
52103.0,STARLINK-3705,PAYLOAD,2023-10-06 11:18:43,15.08841852,0.0001617,53.2165,93.0186,85.8244,274.2933,0.00053561,8.247e-05,0.0,0 STARLINK-3705,1 52103U 22029R   23279.47133266  .00008247  00000-0  53561-3 0  9995,2 52103  53.2165  93.0186 0001617  85.8244 274.2933 15.08841852 87140,6917.875,95.437,540.858,538.621,0.0
52103.0,STARLINK-3705,PAYLOAD,2023-10-06 12:54:06,15.08841792,0.0001642,53.2164,92.721,84.8937,275.2243,0.00048702,7.472e-05,0.0,0 STARLINK-3705,1 52103U 22029R   23279.53757280  .00007472  00000-0  48702-3 0  9990,2 52103  53.2164  92.7210 0001642  84.8937 275.2243 15.08841792 87158,6917.875,95.437,540.876,538.604,0.0
52103.0,STARLINK-3705,PAYLOAD,2023-10-06 19:15:38,15.08848359,0.0001497,53.2165,91.5318,89.7703,270.346,0.00054364,8.377e-05,0.0,0 STARLINK-3705,1 52103U 22029R   23279.80253074  .00008377  00000-0  54364-3 0  9998,2 52103  53.2165  91.5318 0001497  89.7703 270.3460 15.08848359 87195,6917.855,95.437,540.755,538.684,0.0
52103.0,STARLINK-3705,PAYLOAD,2023-10-07 04:47:57,15.08843812,0.0001281,53.2148,89.7459,84.4971,275.6167,0.00027566,4.102e-05,0.0,0 STARLINK-3705,1 52103U 22029R   23280.19997099  .00004102  00000-0  27566-3 0  9990,2 52103  53.2148  89.7459 0001281  84.4971 275.6167 15.08843812 87259,6917.869,95.437,540.62,538.848,0.0
52103.0,STARLINK-3705,PAYLOAD,2023-10-07 20:41:48,15.08848743,0.0001485,53.2159,86.7722,84.5033,275.6129,0.00031275,4.694e-05,0.0,0 STARLINK-3705,1 52103U 22029R   23280.86236954  .00004694  00000-0  31275-3 0  9998,2 52103  53.2159  86.7722 0001485  84.5033 275.6129 15.08848743 87354,6917.854,95.437,540.746,538.691,0.0
52103.0,STARLINK-3705,PAYLOAD,2023-10-08 11:00:16,15.08846727,0.0001535,53.2161,84.0963,90.1005,270.0163,0.00017225,2.455e-05,0.0,0 STARLINK-3705,1 52103U 22029R   23281.45852956  .00002455  00000-0  17225-3 0  9992,2 52103  53.2161  84.0963 0001535  90.1005 270.0163 15.08846727 87440,6917.86,95.437,540.787,538.663,0.0
52103.0,STARLINK-3705,PAYLOAD,2023-10-08 14:11:03,15.08843835,0.0001614,53.2163,83.5026,78.8016,281.3157,0.00011543,1.55e-05,0.0,0 STARLINK-3705,1 52103U 22029R   23281.59101094  .00001550  00000-0  11543-3 0  9999,2 52103  53.2163  83.5026 0001614  78.8016 281.3157 15.08843835 87466,6917.869,95.437,540.85,538.617,0.0
52103.0,STARLINK-3705,PAYLOAD,2023-10-08 17:21:49,15.08847316,0.0001449,53.2167,82.9068,91.9392,268.1766,0.00017368,2.478e-05,0.0,0 STARLINK-3705,1 52103U 22029R   23281.72348823  .00002478  00000-0  17368-3 0  9998,2 52103  53.2167  82.9068 0001449  91.9392 268.1766 15.08847316 87487,6917.858,95.437,540.725,538.721,0.0
52103.0,STARLINK-3705,PAYLOAD,2023-10-09 14:01:50,15.08841072,0.000149,53.2172,79.0417,86.056,274.0603,8.1898e-05,1.016e-05,0.0,0 STARLINK-3705,1 52103U 22029R   23282.58461122  .00001016  00000-0  81898-4 0  9998,2 52103  53.2172  79.0417 0001490  86.0560 274.0603 15.08841072 87610,6917.877,95.437,540.773,538.711,0.0
52103.0,STARLINK-3705,PAYLOAD,2023-10-09 17:12:36,15.08845286,0.0001362,53.2171,78.4463,85.9686,274.1462,0.00013249,1.822e-05,0.0,0 STARLINK-3705,1 52103U 22029R   23282.71708907  .00001822  00000-0  13249-3 0  9997,2 52103  53.2171  78.4463 0001362  85.9686 274.1462 15.08845286 87635,6917.864,95.437,540.671,538.787,0.0
